1 27424U 02022A   12269.62736385  .00000025  00000-0  15486-4 0  4366
2 27424 098.2024 208.6374 0001652 078.6959 281.4276 14.57123769552999